{
  "type": "FeatureCollection",
  "features": [
    {
      "type": "Feature",
      "properties": {
        "norad_id": 66510,
        "name": "STARLINK-35600",
        "group": "last-30-days",
        "lat": 37.09221007377654,
        "lon": -177.7993293665449,
        "alt_km": 409.9884672616363,
        "timestamp": "2025-12-12T05:47:27.525179+00:00",
        "meta_object_name": "STARLINK-35600",
        "meta_object_id": "2025-263AB",
        "meta_epoch": "2025-12-11T20:00:01.999872",
        "meta_mean_motion": 15.50526892,
        "meta_eccentricity": 0.00014466,
        "meta_inclination": 43.0004,
        "meta_ra_of_asc_node": 130.3576,
        "meta_arg_of_pericenter": 275.63,
        "meta_mean_anomaly": 26.8099,
        "meta_ephemeris_type": 0,
        "meta_classification_type": "U",
        "meta_norad_cat_id": 66510,
        "meta_element_set_no": 999,
        "meta_rev_at_epoch": 549,
        "meta_bstar": 0.00055276903,
        "meta_mean_motion_dot": 0.0003216,
        "meta_mean_motion_ddot": 0,
        "tle_line1": "1 66510U 25263AB  25345.83335648  .00032160  00000+0  55277-3 0  9995",
        "tle_line2": "2 66510  43.0004 130.3576 0001446 275.6300  26.8099 15.50526892  5499"
      },
      "geometry": {
        "type": "Point",
        "coordinates": [
          -177.7993293665449,
          37.09221007377654
        ]
      }
    },
    {
      "type": "Feature",
      "properties": {
        "norad_id": 66511,
        "name": "STARLINK-35444",
        "group": "last-30-days",
        "lat": 38.539839362486056,
        "lon": -173.2976642842832,
        "alt_km": 409.6603625322523,
        "timestamp": "2025-12-12T05:47:27.525189+00:00",
        "meta_object_name": "STARLINK-35444",
        "meta_object_id": "2025-263AC",
        "meta_epoch": "2025-12-11T20:00:01.999872",
        "meta_mean_motion": 15.50557824,
        "meta_eccentricity": 0.00010822,
        "meta_inclination": 43.0003,
        "meta_ra_of_asc_node": 130.3489,
        "meta_arg_of_pericenter": 276.432,
        "meta_mean_anomaly": 29.8475,
        "meta_ephemeris_type": 0,
        "meta_classification_type": "U",
        "meta_norad_cat_id": 66511,
        "meta_element_set_no": 999,
        "meta_rev_at_epoch": 549,
        "meta_bstar": -0.00063683263,
        "meta_mean_motion_dot": -0.00037493,
        "meta_mean_motion_ddot": 0,
        "tle_line1": "1 66511U 25263AC  25345.83335648 -.00037493  00000+0 -63683-3 0  9992",
        "tle_line2": "2 66511  43.0003 130.3489 0001082 276.4320  29.8475 15.50557824  5499"
      },
      "geometry": {
        "type": "Point",
        "coordinates": [
          -173.2976642842832,
          38.539839362486056
        ]
      }
    },
    {
      "type": "Feature",
      "properties": {
        "norad_id": 66512,
        "name": "STARLINK-35366",
        "group": "last-30-days",
        "lat": 39.803767576364116,
        "lon": -168.63973604529173,
        "alt_km": 409.44471280566995,
        "timestamp": "2025-12-12T05:47:27.525199+00:00",
        "meta_object_name": "STARLINK-35366",
        "meta_object_id": "2025-263AD",
        "meta_epoch": "2025-12-11T20:00:01.999872",
        "meta_mean_motion": 15.50525565,
        "meta_eccentricity": 0.00013336,
        "meta_inclination": 43.0002,
        "meta_ra_of_asc_node": 130.3388,
        "meta_arg_of_pericenter": 289.7193,
        "meta_mean_anomaly": 20.3912,
        "meta_ephemeris_type": 0,
        "meta_classification_type": "U",
        "meta_norad_cat_id": 66512,
        "meta_element_set_no": 999,
        "meta_rev_at_epoch": 549,
        "meta_bstar": 0.00052180615,
        "meta_mean_motion_dot": 0.0003033,
        "meta_mean_motion_ddot": 0,
        "tle_line1": "1 66512U 25263AD  25345.83335648  .00030330  00000+0  52181-3 0  9995",
        "tle_line2": "2 66512  43.0002 130.3388 0001333 289.7193  20.3912 15.50525565  5490"
      },
      "geometry": {
        "type": "Point",
        "coordinates": [
          -168.63973604529173,
          39.803767576364116
        ]
      }
    },
    {
      "type": "Feature",
      "properties": {
        "norad_id": 66513,
        "name": "STARLINK-35692",
        "group": "last-30-days",
        "lat": 37.83700628310758,
        "lon": -175.5726313101889,
        "alt_km": 409.8198448397561,
        "timestamp": "2025-12-12T05:47:27.525209+00:00",
        "meta_object_name": "STARLINK-35692",
        "meta_object_id": "2025-263AE",
        "meta_epoch": "2025-12-11T20:00:01.999872",
        "meta_mean_motion": 15.5059429,
        "meta_eccentricity": 0.00016307,
        "meta_inclination": 43.0005,
        "meta_ra_of_asc_node": 130.3534,
        "meta_arg_of_pericenter": 292.6898,
        "meta_mean_anomaly": 11.6262,
        "meta_ephemeris_type": 0,
        "meta_classification_type": "U",
        "meta_norad_cat_id": 66513,
        "meta_element_set_no": 999,
        "meta_rev_at_epoch": 549,
        "meta_bstar": -0.0012050396,
        "meta_mean_motion_dot": -0.00070442,
        "meta_mean_motion_ddot": 0,
        "tle_line1": "1 66513U 25263AE  25345.83335648 -.00070442  00000+0 -12050-2 0  9996",
        "tle_line2": "2 66513  43.0005 130.3534 0001630 292.6898  11.6262 15.50594290  5494"
      },
      "geometry": {
        "type": "Point",
        "coordinates": [
          -175.5726313101889,
          37.83700628310758
        ]
      }
    },
    {
      "type": "Feature",
      "properties": {
        "norad_id": 66514,
        "name": "SENTINEL-6B",
        "group": "last-30-days",
        "lat": -39.84564849388469,
        "lon": 141.69016473488242,
        "alt_km": 1336.9037851061448,
        "timestamp": "2025-12-12T05:47:27.525242+00:00",
        "meta_object_name": "SENTINEL-6B",
        "meta_object_id": "2025-264A",
        "meta_epoch": "2025-12-11T20:39:27.129024",
        "meta_mean_motion": 12.81479622,
        "meta_eccentricity": 0.00078421,
        "meta_inclination": 66.0381,
        "meta_ra_of_asc_node": 164.2643,
        "meta_arg_of_pericenter": 269.1464,
        "meta_mean_anomaly": 90.8653,
        "meta_ephemeris_type": 0,
        "meta_classification_type": "U",
        "meta_norad_cat_id": 66514,
        "meta_element_set_no": 999,
        "meta_rev_at_epoch": 317,
        "meta_bstar": -0.0052959586,
        "meta_mean_motion_dot": -1.291e-05,
        "meta_mean_motion_ddot": 0,
        "tle_line1": "1 66514U 25264A   25345.86073066 -.00001291  00000+0 -52960-2 0  9994",
        "tle_line2": "2 66514  66.0381 164.2643 0007842 269.1464  90.8653 12.81479622  3171"
      },
      "geometry": {
        "type": "Point",
        "coordinates": [
          141.69016473488242,
          -39.84564849388469
        ]
      }
    },
    {
      "type": "Feature",
      "properties": {
        "norad_id": 66516,
        "name": "STARLINK-35924",
        "group": "last-30-days",
        "lat": -18.646436530495997,
        "lon": -101.77705331572025,
        "alt_km": 438.7437725779773,
        "timestamp": "2025-12-12T05:47:27.525253+00:00",
        "meta_object_name": "STARLINK-35924",
        "meta_object_id": "2025-265A",
        "meta_epoch": "2025-12-11T20:00:01.999872",
        "meta_mean_motion": 15.44817282,
        "meta_eccentricity": 0.00014903,
        "meta_inclination": 43.0004,
        "meta_ra_of_asc_node": 59.3556,
        "meta_arg_of_pericenter": 280.0661,
        "meta_mean_anomaly": 177.8386,
        "meta_ephemeris_type": 0,
        "meta_classification_type": "U",
        "meta_norad_cat_id": 66516,
        "meta_element_set_no": 999,
        "meta_rev_at_epoch": 482,
        "meta_bstar": -0.048394901,
        "meta_mean_motion_dot": -0.02062874,
        "meta_mean_motion_ddot": 0,
        "tle_line1": "1 66516U 25265A   25345.83335648 -.02062874  00000+0 -48395-1 0  9993",
        "tle_line2": "2 66516  43.0004  59.3556 0001490 280.0661 177.8386 15.44817282  4823"
      },
      "geometry": {
        "type": "Point",
        "coordinates": [
          -101.77705331572025,
          -18.646436530495997
        ]
      }
    },
    {
      "type": "Feature",
      "properties": {
        "norad_id": 66517,
        "name": "STARLINK-35937",
        "group": "last-30-days",
        "lat": -33.01062148059428,
        "lon": -78.86720760834834,
        "alt_km": 417.3396488633098,
        "timestamp": "2025-12-12T05:47:27.525264+00:00",
        "meta_object_name": "STARLINK-35937",
        "meta_object_id": "2025-265B",
        "meta_epoch": "2025-12-11T20:00:01.999872",
        "meta_mean_motion": 15.50579916,
        "meta_eccentricity": 0.00015968,
        "meta_inclination": 43.0003,
        "meta_ra_of_asc_node": 59.3183,
        "meta_arg_of_pericenter": 277.4229,
        "meta_mean_anomaly": 195.7693,
        "meta_ephemeris_type": 0,
        "meta_classification_type": "U",
        "meta_norad_cat_id": 66517,
        "meta_element_set_no": 999,
        "meta_rev_at_epoch": 484,
        "meta_bstar": -0.001179803,
        "meta_mean_motion_dot": -0.00068952,
        "meta_mean_motion_ddot": 0,
        "tle_line1": "1 66517U 25265B   25345.83335648 -.00068952  00000+0 -11798-2 0  9993",
        "tle_line2": "2 66517  43.0003  59.3183 0001596 277.4229 195.7693 15.50579916  4844"
      },
      "geometry": {
        "type": "Point",
        "coordinates": [
          -78.86720760834834,
          -33.01062148059428
        ]
      }
    }
  ]
}